COSMOS 2419 (714)       
1 28915U 05050A   16328.10478667 -.00000046  00000-0  00000+0 0  9994
2 28915  65.3975  72.8019 0014231 355.4579  21.7357  2.13106376 84947
COSMOS 2425 (716)       
1 29670U 06062A   16328.12237122 -.00000021  00000-0  10000-3 0  9996
2 29670  65.5619 311.8082 0021550 337.7675 108.5125  2.13104976 77146
COSMOS 2426 (717)       
1 29671U 06062B   16328.31961296 -.00000022  00000-0  10000-3 0  9995
2 29671  65.5796 311.8857 0017351 175.0161 282.3504  2.13103069 77155
COSMOS 2424 (715)       
1 29672U 06062C   16328.53645475 -.00000023  00000-0  10000-3 0  9999
2 29672  65.5633 311.8039 0016668 174.1342 265.5191  2.13102198 77156
COSMOS 2433 (720)       
1 32275U 07052A   16329.06351214 -.00000054  00000-0  10000-3 0  9990
2 32275  65.4120  72.5431 0002240 224.1820  56.2613  2.13104945 70670
COSMOS 2432 (719)       
1 32276U 07052B   16329.13330503 -.00000054  00000-0  10000-3 0  9997
2 32276  65.4244  72.6101 0009891 338.5804 308.8283  2.13104111 70678
COSMOS 2434 (721)       
1 32393U 07065A   16329.14591888 -.00000029  00000-0  00000+0 0  9994
2 32393  65.1791 311.0196 0002089 155.0836  79.4502  2.13102849 69382
COSMOS 2436 (723)       
1 32395U 07065C   16329.17230069 -.00000029  00000-0  10000-3 0  9995
2 32395  65.1927 311.0643 0016941 344.3145   2.4861  2.13102914 69310
COSMOS 2443 (725)       
1 33379U 08046B   16328.44324284 -.00000051  00000-0  00000+0 0  9990
2 33379  65.3417  71.9665 0017139 182.2271 245.3254  2.13100662 63534
COSMOS 2456 (730)       
1 36111U 09070A   16329.23252118  .00000060  00000-0  00000+0 0  9998
2 36111  64.1780 190.5864 0003641 333.6556 137.6036  2.13103009 54057
COSMOS 2457 (733)       
1 36112U 09070B   16328.87627137  .00000055  00000-0  00000+0 0  9999
2 36112  64.1603 190.5226 0006849 154.0355 173.4362  2.13101692 54044
COSMOS 2458 (734)       
1 36113U 09070C   16328.16038448  .00000045  00000-0  10000-3 0  9997
2 36113  64.1657 190.5538 0002164  48.5062 137.4237  2.13101934 54037
COSMOS 2459 (731)       
1 36400U 10007A   16329.02544455 -.00000055  00000-0  10000-3 0  9996
2 36400  65.3212  71.6758 0026335 354.4470 120.7111  2.13102207 52406
COSMOS 2461 (735)       
1 36401U 10007B   16328.47947729 -.00000052  00000-0  10000-3 0  9993
2 36401  65.3148  71.6738 0006635  82.0300 244.8759  2.13101997 52388
COSMOS 2460 (732)       
1 36402U 10007C   16328.94577534 -.00000055  00000-0  10000-3 0  9992
2 36402  65.3042  71.6334 0001541 143.2815 222.9608  2.13101882 52402
COSMOS 2465 (737)       
1 37138U 10041B   16329.18850669 -.00000030  00000-0  00000+0 0  9995
2 37138  64.7788 311.1098 0035568 176.1228 134.3861  2.13103407 48471
COSMOS 2464 (736)       
1 37139U 10041C   16329.13599470 -.00000030  00000-0  00000+0 0  9991
2 37139  64.7857 311.1091 0021851   5.2545  89.3740  2.13102617 48484
COSMOS 2471 (701K)      
1 37372U 11009A   16329.13361190 -.00000056  00000-0  00000+0 0  9999
2 37372  65.3018  71.5749 0007979 225.6112  57.8561  2.13102808 44679
COSMOS 2474 (742)       
1 37829U 11055A   16328.44974877  .00000048  00000-0  00000+0 0  9992
2 37829  64.5028 191.0921 0006786 247.9162 203.5144  2.13101930 40033
COSMOS 2476 (744)       
1 37867U 11064A   16329.15235870  .00000058  00000-0  00000+0 0  9997
2 37867  64.4822 191.1464 0015885 243.4547  72.8746  2.13101990 39395
COSMOS 2477 (745)       
1 37868U 11064B   16329.20776247  .00000058  00000-0  00000+0 0  9992
2 37868  64.4915 191.1863 0013882 244.4117 293.6718  2.13101948 39352
COSMOS 2475 (743)       
1 37869U 11064C   16329.20088978  .00000058  00000-0  00000+0 0  9990
2 37869  64.4973 191.1758 0018907 274.1232 214.9667  2.13102232 39368
COSMOS 2485 (747)       
1 39155U 13019A   16328.48572159  .00000048  00000-0  00000+0 0  9999
2 39155  64.6520 191.1537 0016300 237.7730 332.2387  2.13102110 27855
COSMOS 2492 (754)       
1 39620U 14012A   16328.12554190 -.00000049  00000-0  10000-3 0  9993
2 39620  65.1936  71.6261 0013350 333.4307 353.9153  2.13103471 20799
COSMOS 2500 (755)       
1 40001U 14032A   16328.41439703 -.00000051  00000-0  00000+0 0  9992
2 40001  65.1338  71.6289 0006989 193.9049 218.5030  2.13102833 19027
COSMOS 2501 (702K)      
1 40315U 14075A   16329.15568258 -.00000030  00000-0  00000+0 0  9994
2 40315  64.5121 312.5217 0016220 215.9443 213.4571  2.13099211 15449
COSMOS 2514 (751)       
1 41330U 16008A   16328.16524560 -.00000049  00000-0  00000+0 0  9998
2 41330  64.9341  71.8341 0009911 207.0155 193.7027  2.13103455  6182
COSMOS 2516 (753)       
1 41554U 16032A   16329.17763402 -.00000030  00000-0  00000+0 0  9995
2 41554  64.7311 312.2286 0014020 230.2627 120.9158  2.13101665  3808
